LANDSAT 9               
1 49260U 21088A   24191.21368811  .00000574  00000+0  13764-3 0  9996
2 49260  98.2310 260.5212 0001337  94.8468 265.2883 14.57093200147891
